0 TITAN 3C TRANSTAGE DEB
1 26763U 65108AS  13289.22181541 -.00000114  00000-0  10000-3 0  9093
2 26763 026.5015 318.2643 6740802 122.2202 280.6294 02.73675648125489
0 TITAN 3C TRANSTAGE DEB
1 26763U 65108AS  13292.18310889 -.00000347  00000-0 -28245-2 0  9101
2 26763 026.5019 317.0239 6741082 124.2925 318.1614 02.73673424125568
